{
  "norad_id": 57858,
  "name": "STARLINK-30290",
  "history": [
    {
      "epoch": "2026-03-28T17:10:07.968864Z",
      "apogee_km": 476.2078399758848,
      "perigee_km": 474.23585450117935,
      "latitude_deg": 7.108987617133421e-05,
      "longitude_deg": 111.88991265078938,
      "height_km": 475.71729139195054,
      "semi_major_axis_km": 6853.358847238532,
      "eccentricity": 0.00014387,
      "inclination_deg": 53.1616,
      "raan_deg": 195.5549,
      "arg_perigee_deg": 65.8918,
      "mean_anomaly_deg": 294.2234,
      "mean_motion_rev_day": 15.3019773
    }
  ]
}