{"fetched_at":"2026-03-29T16:36:15Z","count":15609,"tles":[{"name":"STARLINK-30290","line1":"1 57858U 23141U   26087.71537001  .00000833  00000+0  40270-4 0  9991","line2":"2 57858  53.1616 195.5549 0001438  65.8918 294.2234 15.30197730143244","category":"Starlink"}]}